NSS-12                  
1 36032U 09058A   26107.22336431  .00000078  00000+0  00000+0 0  9999
2 36032   0.1014  70.4127 0004732 296.2295 336.1356  1.00272622 60302
THOR 6                  
1 36033U 09058B   26107.15808639 -.00000003  00000+0  00000+0 0  9995
2 36033   0.0188 199.6813 0002421 222.7706 198.9074  1.00271820 60393
INTELSAT 14 (IS-14)     
1 36097U 09064A   26107.21586602 -.00000267  00000+0  00000+0 0  9994
2 36097   0.0096 189.0883 0002339 191.1153 217.8753  1.00272230 59999
EUTELSAT 36B            
1 36101U 09065A   26107.23484611  .00000119  00000+0  00000+0 0  9995
2 36101   0.3369  79.4404 0005786 308.3829 312.5794  1.00271717 60093
INTELSAT 15 (IS-15)     
1 36106U 09067A   26107.09912554 -.00000178  00000+0  00000+0 0  9994
2 36106   0.0192 255.2326 0002164 126.4406 304.4101  1.00271206 40614
WGS F3 (USA 211)        
1 36108U 09068A   26107.00392021  .00000072  00000+0  00000+0 0  9991
2 36108   0.3923  85.3507 0000576 308.5755  42.6536  1.00263750 45971
DIRECTV 12              
1 36131U 09075A   26107.23175946 -.00000097  00000+0  00000+0 0  9993
2 36131   0.0184  42.3447 0000342 334.3680 169.3619  1.00271221 45942
BEIDOU-2 G1             
1 36287U 10001A   26107.25261284 -.00000271  00000+0  00000+0 0  9993
2 36287   4.1498  60.5607 0003696 293.1955  83.0669  1.00272845 59562
SDO                     
1 36395U 10005A   26105.43317678 -.00000035  00000+0  00000+0 0  9992
2 36395  34.5208  87.2889 0000634  41.1720 129.3201  1.00273216 59431
INTELSAT 16 (IS-16)     
1 36397U 10006A   26107.20971265 -.00000238  00000+0  00000+0 0  9995
2 36397   0.0180 267.2204 0001846 143.7447 153.6951  1.00271452 59041
EWS-G2 (GOES 15)        
1 36411U 10008A   26107.09470552  .00000030  00000+0  00000+0 0  9993
2 36411   1.1150  83.9890 0003577  23.0036 195.5961  1.00271487 59020
ECHOSTAR 14             
1 36499U 10010A   26106.99836546  .00000000  00000+0  00000+0 0  9996
2 36499   0.0205 234.6663 0001544 150.4213  60.5569  1.00270678 45933
SES-1                   
1 36516U 10016A   26107.13353235 -.00000107  00000+0  00000+0 0  9997
2 36516   0.0285 284.8802 0002597 103.4640 124.0016  1.00269081 58421
ASTRA 3B                
1 36581U 10021A   26107.22947274  .00000145  00000+0  00000+0 0  9998
2 36581   1.3126  84.2571 0003852 316.2127 270.9950  1.00272244 58259
COMSATBW-2              
1 36582U 10021B   26107.21155699  .00000095  00000+0  00000+0 0  9994
2 36582   0.0174 153.6718 0002681 247.7933 253.2053  1.00272530 58341
BEIDOU-2 G3             
1 36590U 10024A   26106.95534786 -.00000127  00000+0  00000+0 0  9991
2 36590   4.3699  61.7464 0008557 336.0911 230.8728  1.00271183 58154
BADR-5                  
1 36592U 10025A   26107.22999275  .00000152  00000+0  00000+0 0  9990
2 36592   0.0436 122.2896 0002622 317.7346 234.1660  1.00275318 52605
COMS 1                  
1 36744U 10032A   26106.72614130 -.00000334  00000+0  00000+0 0  9998
2 36744   4.6458  76.1912 0001492 353.4600 164.7851  1.00270192 50476
ARABSAT-5A              
1 36745U 10032B   26107.19489390  .00000160  00000+0  00000+0 0  9995
2 36745   0.0804  52.3039 0004169   3.3519 250.3163  1.00272036 58039
ECHOSTAR 15             
1 36792U 10034A   26107.26826846  .00000006  00000+0  00000+0 0  9997
2 36792   0.0414  65.6544 0001952 298.3273 179.1858  1.00271098 57716
BEIDOU-2 IGSO-1         
1 36828U 10036A   26086.63883915 -.00000150  00000+0  00000+0 0  9997
2 36828  54.2909 163.6978 0057461 222.7538 133.1758  1.00295665 57273
NILESAT 201             
1 36830U 10037A   26107.22340605 -.00000051  00000+0  00000+0 0  9994
2 36830   0.0363 122.7964 0003039 287.8538 228.1707  1.00272445 57768
RASCOM-QAF 1R           
1 36831U 10037B   26107.21711490  .00000025  00000+0  00000+0 0  9998
2 36831   0.0256 121.1982 0006532 262.4856 262.7097  1.00271623 57691
AEHF-1 (USA 214)        
1 36868U 10039A   26107.09350465  .00000158  00000+0  00000+0 0  9994
2 36868   8.0683  68.8382 0004104 310.0702 249.9108  1.00272168 53047
XM-5                    
1 37185U 10053A   26107.20199929 -.00000017  00000+0  00000+0 0  9997
2 37185   0.0649 270.2325 0003668 274.9222 337.7172  1.00271868 56876
BSAT-3B                 
1 37207U 10056B   26107.03265486 -.00000342  00000+0  00000+0 0  9999
2 37207   0.0251 187.1269 0001170  88.0925  51.5419  1.00260432 51485
BEIDOU-2 G4             
1 37210U 10057A   26107.25651286 -.00000104  00000+0  00000+0 0  9991
2 37210   3.4947  69.2810 0006643 213.5536 174.8853  1.00270615 56685
SKYTERRA 1              
1 37218U 10061A   26106.90600418 -.00000109  00000+0  00000+0 0  9991
2 37218   4.9957  50.8744 0002562  17.8440   1.1674  1.00271293 56582
HYLAS 1                 
1 37237U 10065A   26107.21155699  .00000099  00000+0  00000+0 0  9994
2 37237   5.4889  73.7450 0001747 282.9700 298.5983  1.00271611  6279
INTELSAT 17 (IS-17)     
1 37238U 10065B   26107.21780937  .00000005  00000+0  00000+0 0  9991
2 37238   0.0192 219.9610 0002584 178.8683 310.9280  1.00271147 52637
BEIDOU-2 IGSO-2         
1 37256U 10068A   26106.88913206 -.00000204  00000+0  00000+0 0  9995
2 37256  47.6641 272.5900 0052869 211.5293 144.7345  1.00304348 56171
EUTELSAT KA-SAT 9A      
1 37258U 10069A   26107.21711490  .00000068  00000+0  00000+0 0  9994
2 37258   0.0614   2.8947 0003805 135.8983 153.7501  1.00271442 43393
HISPASAT 30W-5          
1 37264U 10070A   26106.86235194 -.00000209  00000+0  00000+0 0  9993
2 37264   0.0442 101.4424 0004125 310.8630  73.1552  1.00272919 52576
KOREASAT 6              
1 37265U 10070B   26107.27902986  .00000000  00000+0  00000+0 0  9998
2 37265   0.0152 229.3659 0002179 155.6238  80.7607  1.00269861 56167
BEIDOU-2 IGSO-3         
1 37384U 11013A   26106.74697003 -.00000196  00000+0  00000+0 0  9997
2 37384  62.3287  40.7341 0033995 188.1337 352.8974  1.00283137 55041
INTELSAT 28 (IS-28)     
1 37392U 11016A   26107.24002855 -.00000217  00000+0  00000+0 0  9994
2 37392   1.6481  83.3280 0004172 307.9862 228.7849  1.00270667 52678
YAHSAT 1A               
1 37393U 11016B   26107.17822234  .00000108  00000+0  00000+0 0  9996
2 37393   0.0181 202.7582 0002835 192.7179 286.4921  1.00271324 41790
SBIRS GEO-1 (USA 230)   
1 37481U 11019A   26106.99811315  .00000109  00000+0  00000+0 0  9995
2 37481   4.4032  53.1191 0002368 329.4405 233.6968  1.00272394 54783
TELSTAR 14R             
1 37602U 11021A   26106.85585191 -.00000273  00000+0  00000+0 0  9991
2 37602   0.0489  67.5302 0002212 316.8833  65.6952  1.00270579 55210
GSAT-8                  
1 37605U 11022A   26107.22336431  .00000093  00000+0  00000+0 0  9997
2 37605   1.9730  82.5307 0005458 223.2645  35.0386  1.00271366 52608
ST-2                    
1 37606U 11022B   26107.17941712 -.00000205  00000+0  00000+0 0  9992
2 37606   0.0128 245.8766 0001750 136.1290 335.9004  1.00273070 54663
ZHONGXING-10            
1 37677U 11026A   26107.09912554 -.00000181  00000+0  00000+0 0  9990
2 37677   0.8874  84.8493 0002744 313.6786 287.8720  1.00274131 54389
SES-3                   
1 37748U 11035A   26107.20442597 -.00000094  00000+0  00000+0 0  9990
2 37748   1.1682  83.6801 0003268 306.2114 146.0430  1.00271080 53983
KAZSAT-2                
1 37749U 11035B   26107.02806150 -.00000191  00000+0  00000+0 0  9998
2 37749   0.0420 293.6992 0000863 169.7624 198.3388  1.00270656 52789
BEIDOU-2 IGSO-4         
1 37763U 11038A   26106.64400152  .00000016  00000+0  00000+0 0  9991
2 37763  54.5875 166.2356 0158126 231.6656 131.2537  1.00257439 54038
ASTRA 1N                
1 37775U 11041A   26107.22860608  .00000127  00000+0  00000+0 0  9992
2 37775   0.1129  54.4349 0005240 356.1389 256.2891  1.00274229 43916
BSAT-3C (JCSAT-110R)    
1 37776U 11041B   26107.03265486  .00000000  00000+0  00000+0 0  9995
2 37776   0.0153  59.5724 0000236 209.8018  57.5075  1.00265901 49851
PAKSAT-1R               
1 37779U 11042A   26107.19489390  .00000161  00000+0  00000+0 0  9996
2 37779   0.5298  84.9701 0002794 316.4441 272.0489  1.00270144 53866
SES-2                   
1 37809U 11049A   26107.21083083 -.00000189  00000+0  00000+0 0  9990
2 37809   0.0574  68.3118 0002786 313.1649 172.7815  1.00272605 53352
ARABSAT-5C              
1 37810U 11049B   26107.22877941  .00000130  00000+0  00000+0 0  9992
2 37810   0.0592  10.2199 0002752  21.0486 276.4630  1.00269741 53428
EUTELSAT 7 WEST A       
1 37816U 11051A   26107.22331939 -.00000054  00000+0  00000+0 0  9999
2 37816   0.0701  21.4092 0002628 104.9375 152.0915  1.00270888 53263
QUETZSAT 1              
1 37826U 11054A   26107.17996374 -.00000235  00000+0  00000+0 0  9998
2 37826   0.0442  56.5740 0002388 342.5447 153.9846  1.00270183 49264
INTELSAT 18 (IS-18)     
1 37834U 11056A   26107.28030986  .00000060  00000+0  00000+0 0  9994
2 37834   0.0163 258.6707 0001635 122.6065 105.0525  1.00273358 53206
EUTELSAT 16A            
1 37836U 11057A   26107.21155699  .00000111  00000+0  00000+0 0  9996
2 37836   0.0605  20.4876 0005693  11.1966 265.8086  1.00272432  6725
VIASAT-1                
1 37843U 11059A   26106.99280775 -.00000016  00000+0  00000+0 0  9999
2 37843   0.0178 246.3446 0002950 143.1745  57.9258  1.00262930 46709
ASIASAT 7               
1 37933U 11069A   26107.03178819 -.00000327  00000+0  00000+0 0  9996
2 37933   0.0481  75.6479 0001557 295.8938 310.5563  1.00275038 44243
BEIDOU-2 IGSO-5         
1 37948U 11073A   26106.84541720 -.00000151  00000+0  00000+0 0  9995
2 37948  47.7931 272.3011 0110292 220.5742 110.5110  1.00262105 52516
LUCH-5A                 
1 37951U 11074B   26107.18657257 -.00000039  00000+0  00000+0 0  9996
2 37951   8.5994  74.6877 0002693 291.7069  73.0071  1.00271589 52441
NIGCOMSAT 1R            
1 38014U 11077A   26107.23311277  .00000151  00000+0  00000+0 0  9999
2 38014   0.0139 203.5681 0002500 135.9983 352.2180  1.00273894 52340
